[{"CCSDS_OMM_VERS":"3.0","COMMENT":"GENERATED VIA SPACE-TRACK.ORG API","CREATION_DATE":"2026-05-26T10:30:27","ORIGINATOR":"18 SPCS","OBJECT_NAME":"GALILEO 16 (26C)","OBJECT_ID":"2016-069B","CENTER_NAME":"EARTH","REF_FRAME":"TEME","TIME_SYSTEM":"UTC","MEAN_ELEMENT_THEORY":"SGP4","EPOCH":"2026-05-25T21:29:02.802912","MEAN_MOTION":"1.70473945","ECCENTRICITY":"0.00047282","INCLINATION":"55.4835","RA_OF_ASC_NODE":"101.6975","ARG_OF_PERICENTER":"350.0840","MEAN_ANOMALY":"9.8628","EPHEMERIS_TYPE":"0","CLASSIFICATION_TYPE":"U","NORAD_CAT_ID":"41860","ELEMENT_SET_NO":"999","REV_AT_EPOCH":"5927","BSTAR":"0.00000000000000","MEAN_MOTION_DOT":"0.00000007","MEAN_MOTION_DDOT":"0.0000000000000","SEMIMAJOR_AXIS":"29600.326","PERIOD":"844.704","APOAPSIS":"23236.187","PERIAPSIS":"23208.196","OBJECT_TYPE":"PAYLOAD","RCS_SIZE":"LARGE","COUNTRY_CODE":"ESA","LAUNCH_DATE":"2016-11-17","SITE":"FRGUI","DECAY_DATE":null,"FILE":"5214595","GP_ID":"325000199","TLE_LINE0":"0 GALILEO 16 (26C)","TLE_LINE1":"1 41860U 16069B   26145.89517133  .00000007  00000-0  00000-0 0  9993","TLE_LINE2":"2 41860  55.4835 101.6975 0004728 350.0840   9.8628  1.70473945 59277"},{"CCSDS_OMM_VERS":"3.0","COMMENT":"GENERATED VIA SPACE-TRACK.ORG API","CREATION_DATE":"2026-05-28T06:46:34","ORIGINATOR":"18 SPCS","OBJECT_NAME":"GALILEO 16 (26C)","OBJECT_ID":"2016-069B","CENTER_NAME":"EARTH","REF_FRAME":"TEME","TIME_SYSTEM":"UTC","MEAN_ELEMENT_THEORY":"SGP4","EPOCH":"2026-05-27T15:43:04.503936","MEAN_MOTION":"1.70474009","ECCENTRICITY":"0.00047120","INCLINATION":"55.4846","RA_OF_ASC_NODE":"101.6489","ARG_OF_PERICENTER":"350.8102","MEAN_ANOMALY":"9.1301","EPHEMERIS_TYPE":"0","CLASSIFICATION_TYPE":"U","NORAD_CAT_ID":"41860","ELEMENT_SET_NO":"999","REV_AT_EPOCH":"5930","BSTAR":"0.00000000000000","MEAN_MOTION_DOT":"-0.00000003","MEAN_MOTION_DDOT":"0.0000000000000","SEMIMAJOR_AXIS":"29600.319","PERIOD":"844.704","APOAPSIS":"23236.132","PERIAPSIS":"23208.236","OBJECT_TYPE":"PAYLOAD","RCS_SIZE":"LARGE","COUNTRY_CODE":"ESA","LAUNCH_DATE":"2016-11-17","SITE":"FRGUI","DECAY_DATE":null,"FILE":"5217834","GP_ID":"325451423","TLE_LINE0":"0 GALILEO 16 (26C)","TLE_LINE1":"1 41860U 16069B   26147.65491324 -.00000003  00000-0  00000+0 0  9998","TLE_LINE2":"2 41860  55.4846 101.6489 0004712 350.8102   9.1301  1.70474009 59308"},{"CCSDS_OMM_VERS":"3.0","COMMENT":"GENERATED VIA SPACE-TRACK.ORG API","CREATION_DATE":"2026-05-28T02:30:48","ORIGINATOR":"18 SPCS","OBJECT_NAME":"GALILEO 16 (26C)","OBJECT_ID":"2016-069B","CENTER_NAME":"EARTH","REF_FRAME":"TEME","TIME_SYSTEM":"UTC","MEAN_ELEMENT_THEORY":"SGP4","EPOCH":"2026-05-27T15:43:04.504800","MEAN_MOTION":"1.70474009","ECCENTRICITY":"0.00047124","INCLINATION":"55.4846","RA_OF_ASC_NODE":"101.6490","ARG_OF_PERICENTER":"350.8102","MEAN_ANOMALY":"9.1301","EPHEMERIS_TYPE":"0","CLASSIFICATION_TYPE":"U","NORAD_CAT_ID":"41860","ELEMENT_SET_NO":"999","REV_AT_EPOCH":"5930","BSTAR":"0.00000000000000","MEAN_MOTION_DOT":"-0.00000003","MEAN_MOTION_DDOT":"0.0000000000000","SEMIMAJOR_AXIS":"29600.319","PERIOD":"844.704","APOAPSIS":"23236.133","PERIAPSIS":"23208.235","OBJECT_TYPE":"PAYLOAD","RCS_SIZE":"LARGE","COUNTRY_CODE":"ESA","LAUNCH_DATE":"2016-11-17","SITE":"FRGUI","DECAY_DATE":null,"FILE":"5217309","GP_ID":"325411383","TLE_LINE0":"0 GALILEO 16 (26C)","TLE_LINE1":"1 41860U 16069B   26147.65491325 -.00000003  00000-0  00000-0 0  9990","TLE_LINE2":"2 41860  55.4846 101.6490 0004712 350.8102   9.1301  1.70474009 59300"},{"CCSDS_OMM_VERS":"3.0","COMMENT":"GENERATED VIA SPACE-TRACK.ORG API","CREATION_DATE":"2026-05-28T15:57:22","ORIGINATOR":"18 SPCS","OBJECT_NAME":"GALILEO 16 (26C)","OBJECT_ID":"2016-069B","CENTER_NAME":"EARTH","REF_FRAME":"TEME","TIME_SYSTEM":"UTC","MEAN_ELEMENT_THEORY":"SGP4","EPOCH":"2026-05-28T05:47:45.029760","MEAN_MOTION":"1.70474033","ECCENTRICITY":"0.00047090","INCLINATION":"55.4849","RA_OF_ASC_NODE":"101.6327","ARG_OF_PERICENTER":"350.8222","MEAN_ANOMALY":"9.1160","EPHEMERIS_TYPE":"0","CLASSIFICATION_TYPE":"U","NORAD_CAT_ID":"41860","ELEMENT_SET_NO":"999","REV_AT_EPOCH":"5931","BSTAR":"0.00000000000000","MEAN_MOTION_DOT":"-0.00000005","MEAN_MOTION_DDOT":"0.0000000000000","SEMIMAJOR_AXIS":"29600.316","PERIOD":"844.703","APOAPSIS":"23236.120","PERIAPSIS":"23208.242","OBJECT_TYPE":"PAYLOAD","RCS_SIZE":"LARGE","COUNTRY_CODE":"ESA","LAUNCH_DATE":"2016-11-17","SITE":"FRGUI","DECAY_DATE":null,"FILE":"5218432","GP_ID":"325569556","TLE_LINE0":"0 GALILEO 16 (26C)","TLE_LINE1":"1 41860U 16069B   26148.24149340 -.00000005  00000-0  00000+0 0  9994","TLE_LINE2":"2 41860  55.4849 101.6327 0004709 350.8222   9.1160  1.70474033 59312"},{"CCSDS_OMM_VERS":"3.0","COMMENT":"GENERATED VIA SPACE-TRACK.ORG API","CREATION_DATE":"2026-05-28T10:52:39","ORIGINATOR":"18 SPCS","OBJECT_NAME":"GALILEO 16 (26C)","OBJECT_ID":"2016-069B","CENTER_NAME":"EARTH","REF_FRAME":"TEME","TIME_SYSTEM":"UTC","MEAN_ELEMENT_THEORY":"SGP4","EPOCH":"2026-05-28T05:47:45.030624","MEAN_MOTION":"1.70474033","ECCENTRICITY":"0.00047088","INCLINATION":"55.4849","RA_OF_ASC_NODE":"101.6327","ARG_OF_PERICENTER":"350.8222","MEAN_ANOMALY":"9.1160","EPHEMERIS_TYPE":"0","CLASSIFICATION_TYPE":"U","NORAD_CAT_ID":"41860","ELEMENT_SET_NO":"999","REV_AT_EPOCH":"5931","BSTAR":"0.00000000000000","MEAN_MOTION_DOT":"-0.00000005","MEAN_MOTION_DDOT":"0.0000000000000","SEMIMAJOR_AXIS":"29600.316","PERIOD":"844.703","APOAPSIS":"23236.120","PERIAPSIS":"23208.243","OBJECT_TYPE":"PAYLOAD","RCS_SIZE":"LARGE","COUNTRY_CODE":"ESA","LAUNCH_DATE":"2016-11-17","SITE":"FRGUI","DECAY_DATE":null,"FILE":"5218154","GP_ID":"325526402","TLE_LINE0":"0 GALILEO 16 (26C)","TLE_LINE1":"1 41860U 16069B   26148.24149341 -.00000005  00000-0  00000-0 0  9996","TLE_LINE2":"2 41860  55.4849 101.6327 0004709 350.8222   9.1160  1.70474033 59312"},{"CCSDS_OMM_VERS":"3.0","COMMENT":"GENERATED VIA SPACE-TRACK.ORG API","CREATION_DATE":"2026-05-29T17:54:44","ORIGINATOR":"18 SPCS","OBJECT_NAME":"GALILEO 16 (26C)","OBJECT_ID":"2016-069B","CENTER_NAME":"EARTH","REF_FRAME":"TEME","TIME_SYSTEM":"UTC","MEAN_ELEMENT_THEORY":"SGP4","EPOCH":"2026-05-28T05:47:45.248352","MEAN_MOTION":"1.70473970","ECCENTRICITY":"0.00047101","INCLINATION":"55.4848","RA_OF_ASC_NODE":"101.6328","ARG_OF_PERICENTER":"350.8303","MEAN_ANOMALY":"9.1079","EPHEMERIS_TYPE":"0","CLASSIFICATION_TYPE":"U","NORAD_CAT_ID":"41860","ELEMENT_SET_NO":"999","REV_AT_EPOCH":"5931","BSTAR":"0.00000000000000","MEAN_MOTION_DOT":"-0.00000005","MEAN_MOTION_DDOT":"0.0000000000000","SEMIMAJOR_AXIS":"29600.324","PERIOD":"844.704","APOAPSIS":"23236.131","PERIAPSIS":"23208.247","OBJECT_TYPE":"PAYLOAD","RCS_SIZE":"LARGE","COUNTRY_CODE":"ESA","LAUNCH_DATE":"2016-11-17","SITE":"FRGUI","DECAY_DATE":null,"FILE":"5221432","GP_ID":"325871097","TLE_LINE0":"0 GALILEO 16 (26C)","TLE_LINE1":"1 41860U 16069B   26148.24149593 -.00000005  00000-0  00000-0 0  9995","TLE_LINE2":"2 41860  55.4848 101.6328 0004710 350.8303   9.1079  1.70473970 59312"},{"CCSDS_OMM_VERS":"3.0","COMMENT":"GENERATED VIA SPACE-TRACK.ORG API","CREATION_DATE":"2026-05-28T22:26:28","ORIGINATOR":"18 SPCS","OBJECT_NAME":"GALILEO 16 (26C)","OBJECT_ID":"2016-069B","CENTER_NAME":"EARTH","REF_FRAME":"TEME","TIME_SYSTEM":"UTC","MEAN_ELEMENT_THEORY":"SGP4","EPOCH":"2026-05-28T05:47:45.248352","MEAN_MOTION":"1.70473970","ECCENTRICITY":"0.00047100","INCLINATION":"55.4848","RA_OF_ASC_NODE":"101.6328","ARG_OF_PERICENTER":"350.8303","MEAN_ANOMALY":"9.1079","EPHEMERIS_TYPE":"0","CLASSIFICATION_TYPE":"U","NORAD_CAT_ID":"41860","ELEMENT_SET_NO":"999","REV_AT_EPOCH":"5931","BSTAR":"0.00000000000000","MEAN_MOTION_DOT":"-0.00000005","MEAN_MOTION_DDOT":"0.0000000000000","SEMIMAJOR_AXIS":"29600.324","PERIOD":"844.704","APOAPSIS":"23236.130","PERIAPSIS":"23208.247","OBJECT_TYPE":"PAYLOAD","RCS_SIZE":"LARGE","COUNTRY_CODE":"ESA","LAUNCH_DATE":"2016-11-17","SITE":"FRGUI","DECAY_DATE":null,"FILE":"5219289","GP_ID":"325654375","TLE_LINE0":"0 GALILEO 16 (26C)","TLE_LINE1":"1 41860U 16069B   26148.24149593 -.00000005  00000-0  00000+0 0  9994","TLE_LINE2":"2 41860  55.4848 101.6328 0004710 350.8303   9.1079  1.70473970 59312"},{"CCSDS_OMM_VERS":"3.0","COMMENT":"GENERATED VIA SPACE-TRACK.ORG API","CREATION_DATE":"2026-05-30T16:36:27","ORIGINATOR":"18 SPCS","OBJECT_NAME":"GALILEO 16 (26C)","OBJECT_ID":"2016-069B","CENTER_NAME":"EARTH","REF_FRAME":"TEME","TIME_SYSTEM":"UTC","MEAN_ELEMENT_THEORY":"SGP4","EPOCH":"2026-05-30T00:01:47.415936","MEAN_MOTION":"1.70474017","ECCENTRICITY":"0.00046960","INCLINATION":"55.4858","RA_OF_ASC_NODE":"101.5843","ARG_OF_PERICENTER":"351.3160","MEAN_ANOMALY":"8.6186","EPHEMERIS_TYPE":"0","CLASSIFICATION_TYPE":"U","NORAD_CAT_ID":"41860","ELEMENT_SET_NO":"999","REV_AT_EPOCH":"5934","BSTAR":"0.00000000000000","MEAN_MOTION_DOT":"-0.00000008","MEAN_MOTION_DDOT":"0.0000000000000","SEMIMAJOR_AXIS":"29600.318","PERIOD":"844.704","APOAPSIS":"23236.083","PERIAPSIS":"23208.283","OBJECT_TYPE":"PAYLOAD","RCS_SIZE":"LARGE","COUNTRY_CODE":"ESA","LAUNCH_DATE":"2016-11-17","SITE":"FRGUI","DECAY_DATE":null,"FILE":"5222483","GP_ID":"326014773","TLE_LINE0":"0 GALILEO 16 (26C)","TLE_LINE1":"1 41860U 16069B   26150.00124324 -.00000008  00000-0  00000+0 0  9999","TLE_LINE2":"2 41860  55.4858 101.5843 0004696 351.3160   8.6186  1.70474017 59343"}]